IRIDIUM 112             
1 41925U 17003J   25263.12937593  .00000240  00000+0  78607-4 0  9996
2 41925  86.4021 201.1002 0002169  86.3802 273.7642 14.34218617454567
IRIDIUM 111             
1 41926U 17003K   25262.90738774  .00000254  00000+0  83666-4 0  9998
2 41926  86.4017 201.2564 0002338  82.8008 277.3454 14.34217513454514
IRIDIUM 113             
1 42803U 17039A   25262.95711909  .00000014  00000+0 -20014-5 0  9992
2 42803  86.3916  75.1226 0001891  94.8303 265.3109 14.34217504432456
IRIDIUM 123             
1 42804U 17039B   25262.99859996 -.00000015  00000+0 -12397-4 0  9992
2 42804  86.3925 106.6085 0002313  88.7757 271.3703 14.34217282431229
IRIDIUM 120             
1 42805U 17039C   25262.95077533 -.00000010  00000+0 -10726-4 0  9997
2 42805  86.3905  74.9424 0002232  83.7483 276.3967 14.34217302432448
IRIDIUM 115             
1 42806U 17039D   25262.93629806  .00000146  00000+0  37446-4 0  9998
2 42806  86.4440  75.0401 0002881  89.6615 270.4917 14.43280259435289
IRIDIUM 118             
1 42807U 17039E   25263.10007994  .00000019  00000+0 -15810-6 0  9990
2 42807  86.3924 106.5652 0001890  93.1967 266.9445 14.34217608431238
IRIDIUM 117             
1 42808U 17039F   25262.97957455 -.00000093  00000+0 -40122-4 0  9996
2 42808  86.3926 106.5762 0002237  90.1043 270.0409 14.34217787431246
